OBJECT_NAME,OBJECT_ID,EPOCH,MEAN_MOTION,ECCENTRICITY,INCLINATION,RA_OF_ASC_NODE,ARG_OF_PERICENTER,MEAN_ANOMALY,EPHEMERIS_TYPE,CLASSIFICATION_TYPE,NORAD_CAT_ID,ELEMENT_SET_NO,REV_AT_EPOCH,BSTAR,MEAN_MOTION_DOT,MEAN_MOTION_DDOT
GSAT-29,2018-089A,2026-06-25T04:18:20.796768,1.00269954,.0003777,0.0872,263.3991,167.6778,321.8665,0,U,43698,999,2786,0,.95E-6,0
ES'HAIL 2,2018-090A,2026-06-25T04:09:59.098752,1.00273828,.0002159,0.0179,335.8396,153.6353,232.1349,0,U,43700,999,2775,0,.154E-5,0
GEO-KOMPSAT-2A,2018-100A,2026-06-24T23:31:18.160320,1.00270856,.0002422,0.0439,164.2930,286.2289,303.6860,0,U,43823,999,2770,0,-.334E-5,0
GSAT-11,2018-100B,2026-06-25T04:23:42.782784,1.00272073,.0008143,0.0948,267.4733,184.0038,321.7866,0,U,43824,999,2755,0,-.67E-6,0
GSAT-7A,2018-105A,2026-06-25T00:15:21.741120,1.00273742,.0002228,0.0408,100.0261,333.5534,266.1899,0,U,43864,999,2752,0,.35E-6,0
COSMOS 2533,2018-107A,2026-06-24T23:44:21.842016,1.00271301,.0000522,0.0477,101.2417,13.6998,224.2716,0,U,43867,999,2752,0,-.29E-6,0
TJS-3,2018-110A,2026-06-24T18:51:44.998272,1.00269585,.0002466,2.5647,80.4093,75.7080,187.9616,0,U,43874,999,2749,0,-.21E-5,0
ZHONGXING-2D,2019-001A,2026-06-25T01:14:18.321216,1.00274047,.0001463,0.0389,179.5944,172.2073,69.9755,0,U,43920,999,5415,0,-.327E-5,0
HELLAS-SAT 4 & SGS-1,2019-007A,2026-06-25T04:13:43.741344,1.00271978,.0005359,0.0730,128.1394,11.5536,236.0662,0,U,44034,999,2744,0,.162E-5,0
GSAT-31,2019-007B,2026-06-25T04:16:20.990208,1.00270259,.0000864,0.0480,253.7093,127.8305,3.7289,0,U,44035,999,2704,0,.135E-5,0
NUSANTARA SATU,2019-009A,2026-06-24T23:36:17.679744,1.00270439,.0004673,0.0436,147.1975,330.2547,295.7466,0,U,44048,999,2684,0,-.225E-5,0
ZHONGXING-6C,2019-012A,2026-06-24T18:36:31.552416,1.00271115,.0014231,0.0921,76.8771,334.9383,270.6523,0,U,44067,999,2681,0,-.327E-5,0
WGS 10 (USA 291),2019-014A,2026-06-25T04:19:50.652768,1.00272402,.0000577,0.0190,24.3349,20.3798,353.8759,0,U,44071,999,2669,0,.56E-6,0
TIANLIAN 2-01,2019-017A,2026-06-25T04:24:35.199072,1.00271995,.0001195,0.5610,83.1379,37.3450,295.9969,0,U,44076,999,2672,0,-.97E-6,0
ARABSAT-6A,2019-021A,2026-06-24T04:14:10.175424,1.00276578,.00007433,0.0484,8.1642,352.1044,6.1419,0,U,44186,999,2622,0,.161E-5,0
BEIDOU-3 IGSO-1,2019-023A,2026-06-24T12:59:44.316960,1.00289953,.0025748,58.7053,37.5725,224.9564,323.4804,0,U,44204,999,728,0,-.226E-5,0
BEIDOU-2 G8,2019-027A,2026-06-24T23:35:55.216608,1.00269164,.0010018,1.6787,74.5266,284.2313,52.8483,0,U,44231,999,2615,0,-.24E-5,0
YAMAL 601,2019-031A,2026-06-24T23:08:42.825984,1.00272990,.0002749,0.0252,78.4208,14.8109,216.0575,0,U,44307,999,2600,0,.129E-5,0
AT&T T-16,2019-034A,2026-06-24T05:12:18.359424,1.00269597,.00004288,0.0234,69.8864,237.8872,301.8051,0,U,44333,999,2570,0,-.108E-5,0
EUTELSAT 7C,2019-034B,2026-06-24T01:54:38.704032,1.00271288,.00033904,0.0731,178.8149,257.9007,231.1901,0,U,44334,999,690,0,.55E-6,0
BEIDOU-3 IGSO-2,2019-035A,2026-06-23T20:41:38.697216,1.00264372,.00394231,55.2489,158.8038,216.4706,326.6444,0,U,44337,999,2573,0,-.62E-6,0
COSMOS 2539,2019-048A,2026-06-24T14:24:51.082272,1.00275673,.0000339,0.0378,95.9580,14.9021,30.1106,0,U,44457,999,2530,0,.9E-6,0
EDRS-C,2019-049A,2026-06-24T21:52:41.386368,1.00267608,.0001201,0.0137,21.1361,77.7275,284.8122,0,U,44475,999,2528,0,0,0
INTELSAT 39 (IS-39),2019-049B,2026-06-24T23:12:21.621024,1.00271609,.0000944,0.0066,29.2524,320.4307,333.4657,0,U,44476,999,2520,0,.43E-6,0
AMOS-17,2019-050A,2026-06-23T22:19:29.928000,1.00271061,.00019291,0.0161,338.2141,139.5461,146.1952,0,U,44479,999,2525,0,.116E-5,0
AEHF-5 (USA 292),2019-051A,2026-06-24T23:21:19.117152,1.00272120,.0065933,1.4468,336.8326,359.8116,19.8961,0,U,44481,999,2534,0,-.249E-5,0
EUTELSAT 5 WEST B,2019-067A,2026-06-25T04:01:14.935872,1.00271347,.0003361,0.0620,2.1074,91.5645,234.9471,0,U,44624,999,2451,0,-.33E-6,0
MEV-1,2019-067B,2026-06-16T22:18:40.152960,1.00269616,.00027946,0.8740,268.9828,179.8034,307.2103,0,U,44625,999,6174,0,-.149E-5,0
TJS-4,2019-070A,2026-06-25T04:26:27.519936,1.00273494,.0004359,0.0385,86.0614,317.5168,19.8882,0,U,44637,999,2461,0,-.161E-5,0
TIBA-1,2019-080A,2026-06-25T04:12:43.835040,1.00276442,.0002363,0.0502,359.7005,112.5677,259.7696,0,U,44800,999,2413,0,.165E-5,0
INMARSAT GX5,2019-080B,2026-06-25T04:05:44.504736,1.00271555,.0002419,0.0399,22.9056,80.9603,241.8789,0,U,44801,999,686,0,.84E-6,0
JCSAT-18 (KACIFIC 1),2019-091A,2026-06-23T22:28:51.794976,1.00263997,.00007071,0.0365,230.5457,160.8075,7.9439,0,U,44868,999,2407,0,-.196E-5,0
