GSAT-29                 
1 43698U 18089A   26176.17940737  .00000095  00000+0  00000+0 0  9998
2 43698   0.0872 263.3991 0003777 167.6778 321.8665  1.00269954 27868
ES'HAIL 2               
1 43700U 18090A   26176.17360068  .00000154  00000+0  00000+0 0  9993
2 43700   0.0179 335.8396 0002159 153.6353 232.1349  1.00273828 27759
GEO-KOMPSAT-2A          
1 43823U 18100A   26175.98007130 -.00000334  00000+0  00000+0 0  9998
2 43823   0.0439 164.2930 0002422 286.2289 303.6860  1.00270856 27701
GSAT-11                 
1 43824U 18100B   26176.18313406 -.00000067  00000+0  00000+0 0  9991
2 43824   0.0948 267.4733 0008143 184.0038 321.7866  1.00272073 27550
GSAT-7A                 
1 43864U 18105A   26176.01066830  .00000035  00000+0  00000+0 0  9992
2 43864   0.0408 100.0261 0002228 333.5534 266.1899  1.00273742 27522
COSMOS 2533             
1 43867U 18107A   26175.98914169 -.00000029  00000+0  00000+0 0  9993
2 43867   0.0477 101.2417 0000522  13.6998 224.2716  1.00271301 27524
TJS-3                   
1 43874U 18110A   26175.78593748 -.00000210  00000+0  00000+0 0  9991
2 43874   2.5647  80.4093 0002466  75.7080 187.9616  1.00269585 27497
ZHONGXING-2D            
1 43920U 19001A   26176.05160094 -.00000327  00000+0  00000+0 0  9997
2 43920   0.0389 179.5944 0001463 172.2073  69.9755  1.00274047 54156
HELLAS-SAT 4 & SGS-1    
1 44034U 19007A   26176.17620071  .00000162  00000+0  00000+0 0  9995
2 44034   0.0730 128.1394 0005359  11.5536 236.0662  1.00271978 27445
GSAT-31                 
1 44035U 19007B   26176.17802072  .00000135  00000+0  00000+0 0  9999
2 44035   0.0480 253.7093 0000864 127.8305   3.7289  1.00270259 27041
NUSANTARA SATU          
1 44048U 19009A   26175.98353796 -.00000225  00000+0  00000+0 0  9998
2 44048   0.0436 147.1975 0004673 330.2547 295.7466  1.00270439 26848
ZHONGXING-6C            
1 44067U 19012A   26175.77536519 -.00000327  00000+0  00000+0 0  9999
2 44067   0.0921  76.8771 0014231 334.9383 270.6523  1.00271115 26815
WGS 10 (USA 291)        
1 44071U 19014A   26176.18044737  .00000056  00000+0  00000+0 0  9996
2 44071   0.0190  24.3349 0000577  20.3798 353.8759  1.00272402 26692
TIANLIAN 2-01           
1 44076U 19017A   26176.18374073 -.00000097  00000+0  00000+0 0  9999
2 44076   0.5610  83.1379 0001195  37.3450 295.9969  1.00271995 26724
ARABSAT-6A              
1 44186U 19021A   26175.17650666  .00000161  00000+0  00000+0 0  9990
2 44186   0.0484   8.1642 0000743 352.1044   6.1419  1.00276578 26224
BEIDOU-3 IGSO-1         
1 44204U 19023A   26175.54148515 -.00000226  00000+0  00000+0 0  9992
2 44204  58.7053  37.5725 0025748 224.9564 323.4804  1.00289953  7289
BEIDOU-2 G8             
1 44231U 19027A   26175.98327797 -.00000240  00000+0  00000+0 0  9991
2 44231   1.6787  74.5266 0010018 284.2313  52.8483  1.00269164 26151
YAMAL 601               
1 44307U 19031A   26175.96438456  .00000129  00000+0  00000+0 0  9998
2 44307   0.0252  78.4208 0002749  14.8109 216.0575  1.00272990 26007
AT&T T-16               
1 44333U 19034A   26175.21687916 -.00000108  00000+0  00000+0 0  9993
2 44333   0.0234  69.8864 0000428 237.8872 301.8051  1.00269597 25701
EUTELSAT 7C             
1 44334U 19034B   26175.07961463  .00000055  00000+0  00000+0 0  9990
2 44334   0.0731 178.8149 0003390 257.9007 231.1901  1.00271288  6905
BEIDOU-3 IGSO-2         
1 44337U 19035A   26174.86225344 -.00000062  00000+0  00000+0 0  9990
2 44337  55.2489 158.8038 0039423 216.4706 326.6444  1.00264372 25737
COSMOS 2539             
1 44457U 19048A   26175.60059123  .00000090  00000+0  00000+0 0  9990
2 44457   0.0378  95.9580 0000339  14.9021  30.1106  1.00275673 25304
EDRS-C                  
1 44475U 19049A   26175.91159012  .00000000  00000+0  00000+0 0  9994
2 44475   0.0137  21.1361 0001201  77.7275 284.8122  1.00267608 25284
INTELSAT 39 (IS-39)     
1 44476U 19049B   26175.96691691  .00000043  00000+0  00000+0 0  9991
2 44476   0.0066  29.2524 0000944 320.4307 333.4657  1.00271609 25205
AMOS-17                 
1 44479U 19050A   26174.93020750  .00000116  00000+0  00000+0 0  9995
2 44479   0.0161 338.2141 0001929 139.5461 146.1952  1.00271061 25250
AEHF-5 (USA 292)        
1 44481U 19051A   26175.97313793 -.00000249  00000+0  00000+0 0  9994
2 44481   1.4468 336.8326 0065933 359.8116  19.8961  1.00272120 25349
EUTELSAT 5 WEST B       
1 44624U 19067A   26176.16753398 -.00000033  00000+0  00000+0 0  9992
2 44624   0.0620   2.1074 0003361  91.5645 234.9471  1.00271347 24514
MEV-1                   
1 44625U 19067B   26167.92963140 -.00000149  00000+0  00000+0 0  9993
2 44625   0.8740 268.9828 0002794 179.8034 307.2103  1.00269616 61744
TJS-4                   
1 44637U 19070A   26176.18504074 -.00000161  00000+0  00000+0 0  9999
2 44637   0.0385  86.0614 0004359 317.5168  19.8882  1.00273494 24618
TIBA-1                  
1 44800U 19080A   26176.17550735  .00000165  00000+0  00000+0 0  9999
2 44800   0.0502 359.7005 0002363 112.5677 259.7696  1.00276442 24137
INMARSAT GX5            
1 44801U 19080B   26176.17065399  .00000084  00000+0  00000+0 0  9997
2 44801   0.0399  22.9056 0002419  80.9603 241.8789  1.00271555  6861
JCSAT-18 (KACIFIC 1)    
1 44868U 19091A   26174.93671059 -.00000196  00000+0  00000+0 0  9995
2 44868   0.0365 230.5457 0000707 160.8075   7.9439  1.00263997 24075
